start=new Date('2022-09-23T00:00:00.000Z').valueOf();
sats=[{"SITE":"AFETR","TLE_LINE1":"1 52834U 22062E   22265.91667824  .00004274  00000-0  28667-3 0  9993","DECAY_DATE":null,"PERIOD":"95.439","CENTER_NAME":"EARTH","MEAN_ANOMALY":"30.8227","MEAN_MOTION_DOT":"0.00004274","OBJECT_ID":"2022-062E","RA_OF_ASC_NODE":"307.4164","REF_FRAME":"TEME","APOAPSIS":"540.791","GP_ID":"213262557","EPOCH":"2022-09-22T22:00:00.999936","FILE":"3580594","NORAD_CAT_ID":"52834","ECCENTRICITY":"0.00014030","PERIAPSIS":"538.850","COUNTRY_CODE":"US","ARG_OF_PERICENTER":"56.8724","BSTAR":"0.00028667000000","MEAN_MOTION_DDOT":"0.0000000000000","TLE_LINE2":"2 52834  53.2150 307.4164 0001403  56.8724  30.8227 15.08815373  1302","OBJECT_NAME":"STARLINK-4108","OBJECT_TYPE":"PAYLOAD","ELEMENT_SET_NO":"999","INCLINATION":"53.2150","REV_AT_EPOCH":"130","TIME_SYSTEM":"UTC","MEAN_MOTION":"15.08815373","LAUNCH_DATE":"2022-06-17","RCS_SIZE":"LARGE","CLASSIFICATION_TYPE":"U","EPHEMERIS_TYPE":"0","SEMIMAJOR_AXIS":"6917.956","MEAN_ELEMENT_THEORY":"SGP4"},{"REF_FRAME":"TEME","APOAPSIS":"540.984","OBJECT_ID":"2022-062F","MEAN_MOTION_DOT":"-0.00012499","RA_OF_ASC_NODE":"307.4205","DECAY_DATE":null,"PERIOD":"95.438","CENTER_NAME":"EARTH","MEAN_ANOMALY":"53.8034","SITE":"AFETR","TLE_LINE1":"1 52835U 22062F   22265.91667824 -.00012499  00000-0 -76857-3 0  9998","BSTAR":"-0.00076857000000","PERIAPSIS":"538.517","COUNTRY_CODE":"US","ARG_OF_PERICENTER":"53.8200","FILE":"3580594","NORAD_CAT_ID":"52835","ECCENTRICITY":"0.00017830","GP_ID":"213262870","EPOCH":"2022-09-22T22:00:00.999936","TIME_SYSTEM":"UTC","MEAN_MOTION":"15.08838417","OBJECT_TYPE":"PAYLOAD","ELEMENT_SET_NO":"999","REV_AT_EPOCH":"130","INCLINATION":"53.2161","TLE_LINE2":"2 52835  53.2161 307.4205 0001783  53.8200  53.8034 15.08838417  1303","MEAN_MOTION_DDOT":"0.0000000000000","OBJECT_NAME":"STARLINK-4080","EPHEMERIS_TYPE":"0","SEMIMAJOR_AXIS":"6917.885","MEAN_ELEMENT_THEORY":"SGP4","LAUNCH_DATE":"2022-06-17","RCS_SIZE":"LARGE","CLASSIFICATION_TYPE":"U"},{"ECCENTRICITY":"0.00015880","NORAD_CAT_ID":"52836","FILE":"3580594","GP_ID":"213262306","EPOCH":"2022-09-22T22:00:00.999936","BSTAR":"0.00166520000000","ARG_OF_PERICENTER":"44.6028","COUNTRY_CODE":"US","PERIAPSIS":"538.722","CENTER_NAME":"EARTH","MEAN_ANOMALY":"83.0592","DECAY_DATE":null,"PERIOD":"95.439","TLE_LINE1":"1 52836U 22062G   22265.91667824  .00026295  00000-0  16652-2 0  9992","SITE":"AFETR","APOAPSIS":"540.919","REF_FRAME":"TEME","RA_OF_ASC_NODE":"307.4226","OBJECT_ID":"2022-062G","MEAN_MOTION_DOT":"0.00026295","CLASSIFICATION_TYPE":"U","RCS_SIZE":"LARGE","LAUNCH_DATE":"2022-06-17","MEAN_ELEMENT_THEORY":"SGP4","SEMIMAJOR_AXIS":"6917.956","EPHEMERIS_TYPE":"0","REV_AT_EPOCH":"130","INCLINATION":"53.2169","ELEMENT_SET_NO":"999","OBJECT_TYPE":"PAYLOAD","MEAN_MOTION_DDOT":"0.0000000000000","TLE_LINE2":"2 52836  53.2169 307.4226 0001588  44.6028  83.0592 15.08815333  1300","OBJECT_NAME":"STARLINK-4043","MEAN_MOTION":"15.08815333","TIME_SYSTEM":"UTC"},{"REV_AT_EPOCH":"130","INCLINATION":"53.2165","OBJECT_TYPE":"PAYLOAD","ELEMENT_SET_NO":"999","MEAN_MOTION_DDOT":"0.0000000000000","TLE_LINE2":"2 52837  53.2165 307.4270 0001986  34.6079 133.0420 15.08811741  1308","OBJECT_NAME":"STARLINK-4036","TIME_SYSTEM":"UTC","MEAN_MOTION":"15.08811741","LAUNCH_DATE":"2022-06-17","CLASSIFICATION_TYPE":"U","RCS_SIZE":"LARGE","SEMIMAJOR_AXIS":"6917.967","MEAN_ELEMENT_THEORY":"SGP4","EPHEMERIS_TYPE":"0","PERIOD":"95.439","DECAY_DATE":null,"CENTER_NAME":"EARTH","MEAN_ANOMALY":"133.0420","TLE_LINE1":"1 52837U 22062H   22265.91667824  .00026583  00000-0  16833-2 0  9994","SITE":"AFETR","REF_FRAME":"TEME","APOAPSIS":"541.206","RA_OF_ASC_NODE":"307.4270","OBJECT_ID":"2022-062H","MEAN_MOTION_DOT":"0.00026583","NORAD_CAT_ID":"52837","ECCENTRICITY":"0.00019860","FILE":"3580594","GP_ID":"213263238","EPOCH":"2022-09-22T22:00:00.999936","BSTAR":"0.00168330000000","ARG_OF_PERICENTER":"34.6079","PERIAPSIS":"538.458","COUNTRY_CODE":"US"},{"OBJECT_NAME":"STARLINK-4092","TLE_LINE2":"2 52838  53.2169 307.4226 0001407  67.1059  75.3295 15.08818501  1300","MEAN_MOTION_DDOT":"0.0000000000000","INCLINATION":"53.2169","REV_AT_EPOCH":"130","OBJECT_TYPE":"PAYLOAD","ELEMENT_SET_NO":"999","TIME_SYSTEM":"UTC","MEAN_MOTION":"15.08818501","LAUNCH_DATE":"2022-06-17","CLASSIFICATION_TYPE":"U","RCS_SIZE":"LARGE","SEMIMAJOR_AXIS":"6917.946","MEAN_ELEMENT_THEORY":"SGP4","EPHEMERIS_TYPE":"0","TLE_LINE1":"1 52838U 22062J   22265.91667824  .00025213  00000-0  15975-2 0  9990","SITE":"AFETR","PERIOD":"95.439","DECAY_DATE":null,"MEAN_ANOMALY":"75.3295","CENTER_NAME":"EARTH","RA_OF_ASC_NODE":"307.4226","MEAN_MOTION_DOT":"0.00025213","OBJECT_ID":"2022-062J","REF_FRAME":"TEME","APOAPSIS":"540.784","EPOCH":"2022-09-22T22:00:00.999936","GP_ID":"213262149","NORAD_CAT_ID":"52838","ECCENTRICITY":"0.00014070","FILE":"3580594","ARG_OF_PERICENTER":"67.1059","PERIAPSIS":"538.838","COUNTRY_CODE":"US","BSTAR":"0.00159750000000"},{"RCS_SIZE":"LARGE","CLASSIFICATION_TYPE":"U","LAUNCH_DATE":"2022-06-17","EPHEMERIS_TYPE":"0","MEAN_ELEMENT_THEORY":"SGP4","SEMIMAJOR_AXIS":"6917.944","TLE_LINE2":"2 52839  53.2192 307.4179 0002021  36.3500 171.3029 15.08819031  1307","MEAN_MOTION_DDOT":"0.0000000000000","OBJECT_NAME":"STARLINK-4048","ELEMENT_SET_NO":"999","OBJECT_TYPE":"PAYLOAD","INCLINATION":"53.2192","REV_AT_EPOCH":"130","MEAN_MOTION":"15.08819031","TIME_SYSTEM":"UTC","GP_ID":"213262463","EPOCH":"2022-09-22T22:00:00.999936","FILE":"3580594","ECCENTRICITY":"0.00020210","NORAD_CAT_ID":"52839","COUNTRY_CODE":"US","PERIAPSIS":"538.411","ARG_OF_PERICENTER":"36.3500","BSTAR":"0.00115840000000","SITE":"AFETR","TLE_LINE1":"1 52839U 22062K   22265.91667824  .00018186  00000-0  11584-2 0  9994","CENTER_NAME":"EARTH","MEAN_ANOMALY":"171.3029","PERIOD":"95.439","DECAY_DATE":null,"MEAN_MOTION_DOT":"0.00018186","OBJECT_ID":"2022-062K","RA_OF_ASC_NODE":"307.4179","APOAPSIS":"541.208","REF_FRAME":"TEME"},{"REF_FRAME":"TEME","APOAPSIS":"541.066","RA_OF_ASC_NODE":"307.4191","MEAN_MOTION_DOT":"0.00014048","OBJECT_ID":"2022-062L","PERIOD":"95.438","DECAY_DATE":null,"CENTER_NAME":"EARTH","MEAN_ANOMALY":"142.0335","TLE_LINE1":"1 52840U 22062L   22265.91667824  .00014048  00000-0  89912-3 0  9990","SITE":"AFETR","BSTAR":"0.00089912000000","ARG_OF_PERICENTER":"45.6389","PERIAPSIS":"538.469","COUNTRY_CODE":"US","NORAD_CAT_ID":"52840","ECCENTRICITY":"0.00018770","FILE":"3580594","EPOCH":"2022-09-22T22:00:00.999936","GP_ID":"213262714","TIME_SYSTEM":"UTC","MEAN_MOTION":"15.08832684","REV_AT_EPOCH":"130","INCLINATION":"53.2188","OBJECT_TYPE":"PAYLOAD","ELEMENT_SET_NO":"999","MEAN_MOTION_DDOT":"0.0000000000000","TLE_LINE2":"2 52840  53.2188 307.4191 0001877  45.6389 142.0335 15.08832684  1308","OBJECT_NAME":"STARLINK-4049","SEMIMAJOR_AXIS":"6917.903","MEAN_ELEMENT_THEORY":"SGP4","EPHEMERIS_TYPE":"0","LAUNCH_DATE":"2022-06-17","RCS_SIZE":"LARGE","CLASSIFICATION_TYPE":"U"},{"SITE":"AFETR","TLE_LINE1":"1 52841U 22062M   22265.91667824  .00004040  00000-0  27176-3 0  9996","DECAY_DATE":null,"PERIOD":"95.437","CENTER_NAME":"EARTH","MEAN_ANOMALY":"230.8506","OBJECT_ID":"2022-062M","MEAN_MOTION_DOT":"0.00004040","RA_OF_ASC_NODE":"307.4159","REF_FRAME":"TEME","APOAPSIS":"541.181","EPOCH":"2022-09-22T22:00:00.999936","GP_ID":"213263036","FILE":"3580594","NORAD_CAT_ID":"52841","ECCENTRICITY":"0.00020980","PERIAPSIS":"538.278","COUNTRY_CODE":"US","ARG_OF_PERICENTER":"36.7987","BSTAR":"0.00027176000000","TLE_LINE2":"2 52841  53.2202 307.4159 0002098  36.7987 230.8506 15.08845215  1301","MEAN_MOTION_DDOT":"0.0000000000000","OBJECT_NAME":"STARLINK-4065","OBJECT_TYPE":"PAYLOAD","ELEMENT_SET_NO":"999","INCLINATION":"53.2202","REV_AT_EPOCH":"130","TIME_SYSTEM":"UTC","MEAN_MOTION":"15.08845215","LAUNCH_DATE":"2022-06-17","RCS_SIZE":"LARGE","CLASSIFICATION_TYPE":"U","EPHEMERIS_TYPE":"0","SEMIMAJOR_AXIS":"6917.864","MEAN_ELEMENT_THEORY":"SGP4"},{"REF_FRAME":"TEME","APOAPSIS":"541.115","MEAN_MOTION_DOT":"0.00025818","OBJECT_ID":"2022-062N","RA_OF_ASC_NODE":"307.4250","PERIOD":"95.439","DECAY_DATE":null,"CENTER_NAME":"EARTH","MEAN_ANOMALY":"106.0823","SITE":"AFETR","TLE_LINE1":"1 52842U 22062N   22265.91667824  .00025818  00000-0  16354-2 0  9998","BSTAR":"0.00163540000000","PERIAPSIS":"538.527","COUNTRY_CODE":"US","ARG_OF_PERICENTER":"41.5897","FILE":"3580594","NORAD_CAT_ID":"52842","ECCENTRICITY":"0.00018710","EPOCH":"2022-09-22T22:00:00.999936","GP_ID":"213262558","TIME_SYSTEM":"UTC","MEAN_MOTION":"15.08815248","OBJECT_TYPE":"PAYLOAD","ELEMENT_SET_NO":"999","INCLINATION":"53.2179","REV_AT_EPOCH":"130","OBJECT_NAME":"STARLINK-4046","TLE_LINE2":"2 52842  53.2179 307.4250 0001871  41.5897 106.0823 15.08815248  1308","MEAN_MOTION_DDOT":"0.0000000000000","EPHEMERIS_TYPE":"0","SEMIMAJOR_AXIS":"6917.956","MEAN_ELEMENT_THEORY":"SGP4","LAUNCH_DATE":"2022-06-17","CLASSIFICATION_TYPE":"U","RCS_SIZE":"LARGE"},{"TIME_SYSTEM":"UTC","MEAN_MOTION":"15.08803478","REV_AT_EPOCH":"130","INCLINATION":"53.2188","OBJECT_TYPE":"PAYLOAD","ELEMENT_SET_NO":"999","TLE_LINE2":"2 52843  53.2188 307.4111 0001888  34.4753 273.2131 15.08803478  1306","MEAN_MOTION_DDOT":"0.0000000000000","OBJECT_NAME":"STARLINK-4188","SEMIMAJOR_AXIS":"6917.992","MEAN_ELEMENT_THEORY":"SGP4","EPHEMERIS_TYPE":"0","LAUNCH_DATE":"2022-06-17","RCS_SIZE":"LARGE","CLASSIFICATION_TYPE":"U","REF_FRAME":"TEME","APOAPSIS":"541.163","RA_OF_ASC_NODE":"307.4111","OBJECT_ID":"2022-062P","MEAN_MOTION_DOT":"0.00027413","DECAY_DATE":null,"PERIOD":"95.440","MEAN_ANOMALY":"273.2131","CENTER_NAME":"EARTH","TLE_LINE1":"1 52843U 22062P   22265.91667824  .00027413  00000-0  17355-2 0  9994","SITE":"AFETR","BSTAR":"0.00173550000000","ARG_OF_PERICENTER":"34.4753","PERIAPSIS":"538.551","COUNTRY_CODE":"US","NORAD_CAT_ID":"52843","ECCENTRICITY":"0.00018880","FILE":"3580594","GP_ID":"213262871","EPOCH":"2022-09-22T22:00:00.999936"}];
